{
  "norad_id": 64298,
  "name": "STARLINK-34391",
  "history": [
    {
      "epoch": "2026-04-10T08:04:03.169056Z",
      "apogee_km": 574.3488052232478,
      "perigee_km": 569.6977579628056,
      "latitude_deg": 3.145706059958057e-05,
      "longitude_deg": 154.88855391482812,
      "height_km": 574.4909876650763,
      "semi_major_axis_km": 6950.160281593026,
      "eccentricity": 0.0003346,
      "inclination_deg": 70.0005,
      "raan_deg": 114.4732,
      "arg_perigee_deg": 269.0177,
      "mean_anomaly_deg": 91.0599,
      "mean_motion_rev_day": 14.98340545
    },
    {
      "epoch": "2026-04-11T17:42:52.703136Z",
      "apogee_km": 574.3150287175431,
      "perigee_km": 569.7848968551989,
      "latitude_deg": 3.933272129767255e-05,
      "longitude_deg": 5.265625033334943,
      "height_km": 574.496519551147,
      "semi_major_axis_km": 6950.186962786371,
      "eccentricity": 0.0003259,
      "inclination_deg": 70.0005,
      "raan_deg": 110.9385,
      "arg_perigee_deg": 269.5241,
      "mean_anomaly_deg": 90.5545,
      "mean_motion_rev_day": 14.98331917
    },
    {
      "epoch": "2026-04-13T06:33:58.104288Z",
      "apogee_km": 574.3464410539473,
      "perigee_km": 569.7242984211771,
      "latitude_deg": -4.01526512752662e-05,
      "longitude_deg": 167.1053533651135,
      "height_km": 574.6607463027814,
      "semi_major_axis_km": 6950.172369737562,
      "eccentricity": 0.00033252,
      "inclination_deg": 70.0007,
      "raan_deg": 107.0642,
      "arg_perigee_deg": 265.0969,
      "mean_anomaly_deg": 94.981,
      "mean_motion_rev_day": 14.98336636
    },
    {
      "epoch": "2026-04-14T09:48:15.208704Z",
      "apogee_km": 574.2627441775858,
      "perigee_km": 569.8514559822652,
      "latitude_deg": -6.820021550934692e-05,
      "longitude_deg": 114.55384747427466,
      "height_km": 574.5785372687786,
      "semi_major_axis_km": 6950.194100079925,
      "eccentricity": 0.00031735,
      "inclination_deg": 70.0016,
      "raan_deg": 104.2026,
      "arg_perigee_deg": 267.5657,
      "mean_anomaly_deg": 92.5138,
      "mean_motion_rev_day": 14.98329609
    },
    {
      "epoch": "2026-04-15T08:14:07.971648Z",
      "apogee_km": 574.3267403508407,
      "perigee_km": 569.7514394308664,
      "latitude_deg": 1.5121701862400677e-05,
      "longitude_deg": 134.80821190953787,
      "height_km": 574.4740767191369,
      "semi_major_axis_km": 6950.176089890853,
      "eccentricity": 0.00032915,
      "inclination_deg": 69.9994,
      "raan_deg": 101.848,
      "arg_perigee_deg": 269.8175,
      "mean_anomaly_deg": 90.2607,
      "mean_motion_rev_day": 14.98335433
    },
    {
      "epoch": "2026-04-16T16:16:49.014048Z",
      "apogee_km": 574.3361582055031,
      "perigee_km": 569.7393126354964,
      "latitude_deg": -6.137027511485183e-06,
      "longitude_deg": 9.453866349358096,
      "height_km": 574.4505265510327,
      "semi_major_axis_km": 6950.1747354205,
      "eccentricity": 0.0003307,
      "inclination_deg": 69.9994,
      "raan_deg": 98.4807,
      "arg_perigee_deg": 270.372,
      "mean_anomaly_deg": 89.706,
      "mean_motion_rev_day": 14.98335871
    },
    {
      "epoch": "2026-04-17T16:18:50.213376Z",
      "apogee_km": 574.2791924119856,
      "perigee_km": 569.8018880405716,
      "latitude_deg": 7.510531764749381e-06,
      "longitude_deg": 5.437147874668882,
      "height_km": 574.4546572236862,
      "semi_major_axis_km": 6950.177540226278,
      "eccentricity": 0.0003221,
      "inclination_deg": 69.9997,
      "raan_deg": 95.956,
      "arg_perigee_deg": 270.3464,
      "mean_anomaly_deg": 89.7326,
      "mean_motion_rev_day": 14.98334964
    },
    {
      "epoch": "2026-04-18T05:07:54.683040Z",
      "apogee_km": 574.1945060725484,
      "perigee_km": 569.8724730519089,
      "latitude_deg": 2.5978661862609147e-05,
      "longitude_deg": 171.29541854248768,
      "height_km": 574.4699107796027,
      "semi_major_axis_km": 6950.170489562229,
      "eccentricity": 0.00031093,
      "inclination_deg": 70.0,
      "raan_deg": 94.6093,
      "arg_perigee_deg": 269.7653,
      "mean_anomaly_deg": 90.315,
      "mean_motion_rev_day": 14.98337244
    },
    {
      "epoch": "2026-04-19T16:22:51.989088Z",
      "apogee_km": 574.3161928668815,
      "perigee_km": 569.7402041001997,
      "latitude_deg": 2.0182284308783826e-05,
      "longitude_deg": -2.5943949476252373,
      "height_km": 574.4579042599324,
      "semi_major_axis_km": 6950.165198483541,
      "eccentricity": 0.0003292,
      "inclination_deg": 70.0001,
      "raan_deg": 90.9059,
      "arg_perigee_deg": 269.9511,
      "mean_anomaly_deg": 90.1271,
      "mean_motion_rev_day": 14.98338955
    },
    {
      "epoch": "2026-04-20T08:24:12.807072Z",
      "apogee_km": 574.1984214241902,
      "perigee_km": 569.8969521215467,
      "latitude_deg": 5.402129859335493e-05,
      "longitude_deg": 114.72805591043978,
      "height_km": 574.4560006021044,
      "semi_major_axis_km": 6950.184686772868,
      "eccentricity": 0.00030945,
      "inclination_deg": 70.0007,
      "raan_deg": 89.2231,
      "arg_perigee_deg": 270.5136,
      "mean_anomaly_deg": 89.5669,
      "mean_motion_rev_day": 14.98332653
    },
    {
      "epoch": "2026-04-21T21:15:18.063072Z",
      "apogee_km": 574.1767995290847,
      "perigee_km": 569.8871552362434,
      "latitude_deg": -3.739811128045836e-05,
      "longitude_deg": -83.4288166211602,
      "height_km": 574.4610840068932,
      "semi_major_axis_km": 6950.168977382664,
      "eccentricity": 0.0003086,
      "inclination_deg": 70.0006,
      "raan_deg": 85.3516,
      "arg_perigee_deg": 269.9596,
      "mean_anomaly_deg": 90.1209,
      "mean_motion_rev_day": 14.98337733
    },
    {
      "epoch": "2026-04-22T14:52:46.691904Z",
      "apogee_km": 574.1629759665157,
      "perigee_km": 569.9178076156095,
      "latitude_deg": 8.860158982655118e-05,
      "longitude_deg": 9.626522993164839,
      "height_km": 574.458721201911,
      "semi_major_axis_km": 6950.177391791062,
      "eccentricity": 0.0003054,
      "inclination_deg": 70.0008,
      "raan_deg": 83.5,
      "arg_perigee_deg": 270.2492,
      "mean_anomaly_deg": 89.8318,
      "mean_motion_rev_day": 14.98335012
    },
    {
      "epoch": "2026-04-23T05:17:59.525376Z",
      "apogee_km": 574.2347570874281,
      "perigee_km": 569.882405610475,
      "latitude_deg": -3.086087472215048e-05,
      "longitude_deg": 151.21778777194993,
      "height_km": 574.7179366292626,
      "semi_major_axis_km": 6950.195581348951,
      "eccentricity": 0.00031311,
      "inclination_deg": 70.0023,
      "raan_deg": 81.987,
      "arg_perigee_deg": 263.891,
      "mean_anomaly_deg": 96.1892,
      "mean_motion_rev_day": 14.9832913
    },
    {
      "epoch": "2026-04-24T21:21:22.767840Z",
      "apogee_km": 573.8780234753303,
      "perigee_km": 570.2097180117526,
      "latitude_deg": 2.4730156235141092e-05,
      "longitude_deg": -95.48409809707556,
      "height_km": 574.62597860112,
      "semi_major_axis_km": 6950.180870743541,
      "eccentricity": 0.0002639,
      "inclination_deg": 70.0014,
      "raan_deg": 77.777,
      "arg_perigee_deg": 265.1553,
      "mean_anomaly_deg": 94.9305,
      "mean_motion_rev_day": 14.98333887
    },
    {
      "epoch": "2026-04-25T14:58:51.267072Z",
      "apogee_km": 574.1149060601092,
      "perigee_km": 569.9448059465085,
      "latitude_deg": -4.725583816965765e-05,
      "longitude_deg": -2.4286869976963374,
      "height_km": 574.5336966073896,
      "semi_major_axis_km": 6950.166856003309,
      "eccentricity": 0.0003,
      "inclination_deg": 70.0008,
      "raan_deg": 75.925,
      "arg_perigee_deg": 267.9027,
      "mean_anomaly_deg": 92.1788,
      "mean_motion_rev_day": 14.98338419
    }
  ]
}